[
  {
    "OBJECT_NAME": "NOAA 15",
    "OBJECT_ID": "1998-030A",
    "EPOCH": "2025-04-22T03:34:39.058752",
    "MEAN_MOTION": 14.26947565,
    "ECCENTRICITY": 0.0011177,
    "INCLINATION": 98.5397,
    "RA_OF_ASC_NODE": 138.4368,
    "ARG_OF_PERICENTER": 136.78,
    "MEAN_ANOMALY": 223.426,
    "EPHEMERIS_TYPE": 0,
    "CLASSIFICATION_TYPE": "U",
    "NORAD_CAT_ID": 25338,
    "ELEMENT_SET_NO": 999,
    "REV_AT_EPOCH": 40149,
    "BSTAR": 0.00016499,
    "MEAN_MOTION_DOT": 0.00000358,
    "MEAN_MOTION_DDOT": 0
  },
  {
    "OBJECT_NAME": "NOAA 18",
    "OBJECT_ID": "2005-018A",
    "EPOCH": "2025-04-22T04:59:18.167424",
    "MEAN_MOTION": 14.13581068,
    "ECCENTRICITY": 0.0013081,
    "INCLINATION": 98.8425,
    "RA_OF_ASC_NODE": 192.2268,
    "ARG_OF_PERICENTER": 265.747,
    "MEAN_ANOMALY": 94.2208,
    "EPHEMERIS_TYPE": 0,
    "CLASSIFICATION_TYPE": "U",
    "NORAD_CAT_ID": 28654,
    "ELEMENT_SET_NO": 999,
    "REV_AT_EPOCH": 2691,
    "BSTAR": 0.0002077,
    "MEAN_MOTION_DOT": 0.00000348,
    "MEAN_MOTION_DDOT": 0
  },
  {
    "OBJECT_NAME": "NOAA 19",
    "OBJECT_ID": "2009-005A",
    "EPOCH": "2025-04-22T04:57:16.123104",
    "MEAN_MOTION": 14.13345832,
    "ECCENTRICITY": 0.0014613,
    "INCLINATION": 99.0005,
    "RA_OF_ASC_NODE": 176.6325,
    "ARG_OF_PERICENTER": 137.9552,
    "MEAN_ANOMALY": 222.2744,
    "EPHEMERIS_TYPE": 0,
    "CLASSIFICATION_TYPE": "U",
    "NORAD_CAT_ID": 33591,
    "ELEMENT_SET_NO": 999,
    "REV_AT_EPOCH": 83527,
    "BSTAR": 0.00019515,
    "MEAN_MOTION_DOT": 0.00000321,
    "MEAN_MOTION_DDOT": 0
  },
  {
    "OBJECT_NAME": "SUOMI NPP",
    "OBJECT_ID": "2011-061A",
    "EPOCH": "2025-04-22T04:31:43.292928",
    "MEAN_MOTION": 14.19522403,
    "ECCENTRICITY": 0.0002534,
    "INCLINATION": 98.7548,
    "RA_OF_ASC_NODE": 51.999,
    "ARG_OF_PERICENTER": 89.5159,
    "MEAN_ANOMALY": 270.6307,
    "EPHEMERIS_TYPE": 0,
    "CLASSIFICATION_TYPE": "U",
    "NORAD_CAT_ID": 37849,
    "ELEMENT_SET_NO": 999,
    "REV_AT_EPOCH": 69870,
    "BSTAR": 0.00010941,
    "MEAN_MOTION_DOT": 0.00000187,
    "MEAN_MOTION_DDOT": 0
  },
  {
    "OBJECT_NAME": "NOAA 20 (JPSS-1)",
    "OBJECT_ID": "2017-073A",
    "EPOCH": "2025-04-22T03:12:47.214720",
    "MEAN_MOTION": 14.1952856,
    "ECCENTRICITY": 0.0002223,
    "INCLINATION": 98.7387,
    "RA_OF_ASC_NODE": 51.3412,
    "ARG_OF_PERICENTER": 77.3742,
    "MEAN_ANOMALY": 282.7683,
    "EPHEMERIS_TYPE": 0,
    "CLASSIFICATION_TYPE": "U",
    "NORAD_CAT_ID": 43013,
    "ELEMENT_SET_NO": 999,
    "REV_AT_EPOCH": 38473,
    "BSTAR": 0.00011179,
    "MEAN_MOTION_DOT": 0.00000192,
    "MEAN_MOTION_DDOT": 0
  },
  {
    "OBJECT_NAME": "NOAA 21 (JPSS-2)",
    "OBJECT_ID": "2022-150A",
    "EPOCH": "2025-04-21T21:18:59.352480",
    "MEAN_MOTION": 14.19580587,
    "ECCENTRICITY": 0.0001426,
    "INCLINATION": 98.7242,
    "RA_OF_ASC_NODE": 51.4747,
    "ARG_OF_PERICENTER": 7.5566,
    "MEAN_ANOMALY": 352.5631,
    "EPHEMERIS_TYPE": 0,
    "CLASSIFICATION_TYPE": "U",
    "NORAD_CAT_ID": 54234,
    "ELEMENT_SET_NO": 999,
    "REV_AT_EPOCH": 12677,
    "BSTAR": 0.00011345,
    "MEAN_MOTION_DOT": 0.00000196,
    "MEAN_MOTION_DDOT": 0
  }
]